STARLINK-32728          
1 62948U 25029A   26068.70910743  .00022143  00000+0  75755-3 0  9993
2 62948  53.1601 230.0213 0000778  36.0125 324.0928 15.30198454 61394
TEVEL2-2                
1 63219U 25052K   26068.64848259  .00020339  00000+0  69428-3 0  9991
2 63219  97.3987 324.7700 0004693 105.7930 254.3828 15.30343745 54855
